start=new Date('2021-11-05T00:00:00.000Z').valueOf();
sats=[{"MEAN_MOTION_DOT":"-0.00000382","MEAN_ANOMALY":"272.1736","NORAD_CAT_ID":"45784","COUNTRY_CODE":"US","PERIOD":"95.593","INCLINATION":"53.0545","SITE":"AFETR","PERIAPSIS":"546.154","ELEMENT_SET_NO":"999","MEAN_MOTION_DDOT":"0.0000000000000","OBJECT_NAME":"STARLINK-1510","RCS_SIZE":"LARGE","ARG_OF_PERICENTER":"87.9432","EPOCH":"2021-11-04T20:35:42.841536","TLE_LINE2":"2 45784  53.0545 115.7011 0001562  87.9432 272.1736 15.06392615 77735","SEMIMAJOR_AXIS":"6925.371","APOAPSIS":"548.318","LAUNCH_DATE":"2020-06-13","MEAN_MOTION":"15.06392615","OBJECT_ID":"2020-038BG","DECAY_DATE":null,"MEAN_ELEMENT_THEORY":"SGP4","ECCENTRICITY":"0.00015620","FILE":"3202404","GP_ID":"188951974","OBJECT_TYPE":"PAYLOAD","TLE_LINE1":"1 45784U 20038BG  21308.85813474 -.00000382  00000-0 -67339-5 0  9993","EPHEMERIS_TYPE":"0","CENTER_NAME":"EARTH","REV_AT_EPOCH":"7773","CLASSIFICATION_TYPE":"U","RA_OF_ASC_NODE":"115.7011","BSTAR":"-0.00000673390000","REF_FRAME":"TEME","TIME_SYSTEM":"UTC"},{"OBJECT_TYPE":"PAYLOAD","GP_ID":"188952725","FILE":"3202404","OBJECT_ID":"2020-038BH","ECCENTRICITY":"0.00015950","DECAY_DATE":null,"MEAN_ELEMENT_THEORY":"SGP4","REF_FRAME":"TEME","TIME_SYSTEM":"UTC","CLASSIFICATION_TYPE":"U","BSTAR":"0.00003666200000","RA_OF_ASC_NODE":"115.4831","EPHEMERIS_TYPE":"0","CENTER_NAME":"EARTH","REV_AT_EPOCH":"7774","TLE_LINE1":"1 45785U 20038BH  21308.90605131  .00000265  00000-0  36662-4 0  9991","INCLINATION":"53.0531","PERIOD":"95.592","COUNTRY_CODE":"US","MEAN_MOTION_DOT":"0.00000265","NORAD_CAT_ID":"45785","MEAN_ANOMALY":"274.9311","LAUNCH_DATE":"2020-06-13","MEAN_MOTION":"15.06396607","APOAPSIS":"548.329","RCS_SIZE":"LARGE","MEAN_MOTION_DDOT":"0.0000000000000","ELEMENT_SET_NO":"999","OBJECT_NAME":"STARLINK-1512","TLE_LINE2":"2 45785  53.0531 115.4831 0001595  85.1860 274.9311 15.06396607 77744","SEMIMAJOR_AXIS":"6925.359","EPOCH":"2021-11-04T21:44:42.833184","ARG_OF_PERICENTER":"85.1860","PERIAPSIS":"546.119","SITE":"AFETR"},{"TLE_LINE1":"1 45786U 20038BJ  21308.89130368 -.00001508  00000-0 -82348-4 0  9990","EPHEMERIS_TYPE":"0","CENTER_NAME":"EARTH","REV_AT_EPOCH":"7774","CLASSIFICATION_TYPE":"U","BSTAR":"-0.00008234800000","RA_OF_ASC_NODE":"115.5428","TIME_SYSTEM":"UTC","REF_FRAME":"TEME","OBJECT_ID":"2020-038BJ","ECCENTRICITY":"0.00015080","MEAN_ELEMENT_THEORY":"SGP4","DECAY_DATE":null,"FILE":"3202404","OBJECT_TYPE":"PAYLOAD","GP_ID":"188953470","PERIAPSIS":"546.156","SITE":"AFETR","RCS_SIZE":"LARGE","ELEMENT_SET_NO":"999","MEAN_MOTION_DDOT":"0.0000000000000","OBJECT_NAME":"STARLINK-1513","SEMIMAJOR_AXIS":"6925.335","TLE_LINE2":"2 45786  53.0528 115.5428 0001508 100.7023 259.4136 15.06404265 77746","ARG_OF_PERICENTER":"100.7023","EPOCH":"2021-11-04T21:23:28.637952","APOAPSIS":"548.245","LAUNCH_DATE":"2020-06-13","MEAN_MOTION":"15.06404265","MEAN_MOTION_DOT":"-0.00001508","NORAD_CAT_ID":"45786","MEAN_ANOMALY":"259.4136","COUNTRY_CODE":"US","PERIOD":"95.592","INCLINATION":"53.0528"},{"FILE":"3202404","OBJECT_TYPE":"PAYLOAD","GP_ID":"188952218","ECCENTRICITY":"0.00015510","DECAY_DATE":null,"MEAN_ELEMENT_THEORY":"SGP4","OBJECT_ID":"2020-038BK","BSTAR":"0.00024992000000","RA_OF_ASC_NODE":"115.5130","CLASSIFICATION_TYPE":"U","TIME_SYSTEM":"UTC","REF_FRAME":"TEME","TLE_LINE1":"1 45787U 20038BK  21308.89868456  .00003443  00000-0  24992-3 0  9995","REV_AT_EPOCH":"7774","CENTER_NAME":"EARTH","EPHEMERIS_TYPE":"0","PERIOD":"95.592","INCLINATION":"53.0529","NORAD_CAT_ID":"45787","MEAN_ANOMALY":"276.3736","MEAN_MOTION_DOT":"0.00003443","COUNTRY_CODE":"US","APOAPSIS":"548.301","MEAN_MOTION":"15.06395629","LAUNCH_DATE":"2020-06-13","PERIAPSIS":"546.153","SITE":"AFETR","TLE_LINE2":"2 45787  53.0529 115.5130 0001551  83.7430 276.3736 15.06395629 77745","SEMIMAJOR_AXIS":"6925.362","ARG_OF_PERICENTER":"83.7430","EPOCH":"2021-11-04T21:34:06.345984","RCS_SIZE":"LARGE","MEAN_MOTION_DDOT":"0.0000000000000","ELEMENT_SET_NO":"999","OBJECT_NAME":"STARLINK-1517"},{"SITE":"AFETR","PERIAPSIS":"546.224","ELEMENT_SET_NO":"999","MEAN_MOTION_DDOT":"0.0000000000000","OBJECT_NAME":"STARLINK-1522","RCS_SIZE":"LARGE","EPOCH":"2021-11-04T17:44:30.772320","ARG_OF_PERICENTER":"83.0877","SEMIMAJOR_AXIS":"6925.296","TLE_LINE2":"2 46027  53.0561  46.2377 0001353  83.0877 277.0266 15.06417278 69843","APOAPSIS":"548.098","LAUNCH_DATE":"2020-08-07","MEAN_MOTION":"15.06417278","MEAN_MOTION_DOT":"0.00006369","MEAN_ANOMALY":"277.0266","NORAD_CAT_ID":"46027","COUNTRY_CODE":"US","PERIOD":"95.591","INCLINATION":"53.0561","TLE_LINE1":"1 46027U 20055A   21308.73924505  .00006369  00000-0  44588-3 0  9996","EPHEMERIS_TYPE":"0","CENTER_NAME":"EARTH","REV_AT_EPOCH":"6984","CLASSIFICATION_TYPE":"U","RA_OF_ASC_NODE":"46.2377","BSTAR":"0.00044588000000","REF_FRAME":"TEME","TIME_SYSTEM":"UTC","OBJECT_ID":"2020-055A","DECAY_DATE":null,"MEAN_ELEMENT_THEORY":"SGP4","ECCENTRICITY":"0.00013530","FILE":"3202404","GP_ID":"188952243","OBJECT_TYPE":"PAYLOAD"},{"BSTAR":"0.00033172000000","RA_OF_ASC_NODE":"46.1631","CLASSIFICATION_TYPE":"U","REF_FRAME":"TEME","TIME_SYSTEM":"UTC","TLE_LINE1":"1 46028U 20055B   21308.75399735  .00004664  00000-0  33172-3 0  9993","REV_AT_EPOCH":"6986","CENTER_NAME":"EARTH","EPHEMERIS_TYPE":"0","FILE":"3202404","OBJECT_TYPE":"PAYLOAD","GP_ID":"188952493","ECCENTRICITY":"0.00011160","DECAY_DATE":null,"MEAN_ELEMENT_THEORY":"SGP4","OBJECT_ID":"2020-055B","APOAPSIS":"547.970","MEAN_MOTION":"15.06405261","LAUNCH_DATE":"2020-08-07","PERIAPSIS":"546.425","SITE":"AFETR","TLE_LINE2":"2 46028  53.0542  46.1631 0001116  79.8193 280.2922 15.06405261 69862","SEMIMAJOR_AXIS":"6925.332","EPOCH":"2021-11-04T18:05:45.371040","ARG_OF_PERICENTER":"79.8193","RCS_SIZE":"LARGE","MEAN_MOTION_DDOT":"0.0000000000000","OBJECT_NAME":"STARLINK-1523","ELEMENT_SET_NO":"999","PERIOD":"95.592","INCLINATION":"53.0542","NORAD_CAT_ID":"46028","MEAN_ANOMALY":"280.2922","MEAN_MOTION_DOT":"0.00004664","COUNTRY_CODE":"US"},{"LAUNCH_DATE":"2020-08-07","MEAN_MOTION":"15.06416993","APOAPSIS":"548.179","ELEMENT_SET_NO":"999","MEAN_MOTION_DDOT":"0.0000000000000","OBJECT_NAME":"STARLINK-1526","RCS_SIZE":"LARGE","ARG_OF_PERICENTER":"88.3965","EPOCH":"2021-11-04T17:55:08.587488","TLE_LINE2":"2 46029  53.0557  46.2024 0001470  88.3965 271.7192 15.06416993 69858","SEMIMAJOR_AXIS":"6925.296","SITE":"AFETR","PERIAPSIS":"546.143","INCLINATION":"53.0557","PERIOD":"95.591","COUNTRY_CODE":"US","MEAN_MOTION_DOT":"0.00008733","MEAN_ANOMALY":"271.7192","NORAD_CAT_ID":"46029","TIME_SYSTEM":"UTC","REF_FRAME":"TEME","CLASSIFICATION_TYPE":"U","RA_OF_ASC_NODE":"46.2024","BSTAR":"0.00060415000000","EPHEMERIS_TYPE":"0","CENTER_NAME":"EARTH","REV_AT_EPOCH":"6985","TLE_LINE1":"1 46029U 20055C   21308.74662717  .00008733  00000-0  60415-3 0  9997","GP_ID":"188953244","OBJECT_TYPE":"PAYLOAD","FILE":"3202404","OBJECT_ID":"2020-055C","MEAN_ELEMENT_THEORY":"SGP4","DECAY_DATE":null,"ECCENTRICITY":"0.00014700"},{"MEAN_MOTION_DOT":"0.00004169","NORAD_CAT_ID":"46030","MEAN_ANOMALY":"278.1305","COUNTRY_CODE":"US","PERIOD":"95.592","INCLINATION":"53.0542","PERIAPSIS":"546.209","SITE":"AFETR","RCS_SIZE":"LARGE","MEAN_MOTION_DDOT":"0.0000000000000","ELEMENT_SET_NO":"999","OBJECT_NAME":"STARLINK-1534","TLE_LINE2":"2 46030  53.0542  46.7101 0001423  81.9845 278.1305 15.06406146 69798","SEMIMAJOR_AXIS":"6925.330","ARG_OF_PERICENTER":"81.9845","EPOCH":"2021-11-04T15:10:35.208480","APOAPSIS":"548.180","LAUNCH_DATE":"2020-08-07","MEAN_MOTION":"15.06406146","OBJECT_ID":"2020-055D","ECCENTRICITY":"0.00014230","MEAN_ELEMENT_THEORY":"SGP4","DECAY_DATE":null,"FILE":"3202404","OBJECT_TYPE":"PAYLOAD","GP_ID":"188953002","TLE_LINE1":"1 46030U 20055D   21308.63235195  .00004169  00000-0  29853-3 0  9993","EPHEMERIS_TYPE":"0","REV_AT_EPOCH":"6979","CENTER_NAME":"EARTH","CLASSIFICATION_TYPE":"U","BSTAR":"0.00029853000000","RA_OF_ASC_NODE":"46.7101","TIME_SYSTEM":"UTC","REF_FRAME":"TEME"},{"INCLINATION":"53.0546","PERIOD":"95.591","COUNTRY_CODE":"US","MEAN_ANOMALY":"282.8652","NORAD_CAT_ID":"46031","MEAN_MOTION_DOT":"0.00004540","MEAN_MOTION":"15.06415805","LAUNCH_DATE":"2020-08-07","APOAPSIS":"548.038","EPOCH":"2021-11-04T18:26:58.393824","ARG_OF_PERICENTER":"77.2478","TLE_LINE2":"2 46031  53.0546  46.0957 0001260  77.2478 282.8652 15.06415805 69849","SEMIMAJOR_AXIS":"6925.300","ELEMENT_SET_NO":"999","MEAN_MOTION_DDOT":"0.0000000000000","OBJECT_NAME":"STARLINK-1544","RCS_SIZE":"LARGE","SITE":"AFETR","PERIAPSIS":"546.293","GP_ID":"188951750","OBJECT_TYPE":"PAYLOAD","FILE":"3202404","DECAY_DATE":null,"MEAN_ELEMENT_THEORY":"SGP4","ECCENTRICITY":"0.00012600","OBJECT_ID":"2020-055E","TIME_SYSTEM":"UTC","REF_FRAME":"TEME","RA_OF_ASC_NODE":"46.0957","BSTAR":"0.00032332000000","CLASSIFICATION_TYPE":"U","CENTER_NAME":"EARTH","REV_AT_EPOCH":"6984","EPHEMERIS_TYPE":"0","TLE_LINE1":"1 46031U 20055E   21308.76873141  .00004540  00000-0  32332-3 0  9996"},{"BSTAR":"0.00036009000000","RA_OF_ASC_NODE":"45.9628","CLASSIFICATION_TYPE":"U","REF_FRAME":"TEME","TIME_SYSTEM":"UTC","TLE_LINE1":"1 46032U 20055F   21308.79822687  .00005087  00000-0  36009-3 0  9991","REV_AT_EPOCH":"6986","CENTER_NAME":"EARTH","EPHEMERIS_TYPE":"0","FILE":"3202404","OBJECT_TYPE":"PAYLOAD","GP_ID":"188952000","ECCENTRICITY":"0.00012700","DECAY_DATE":null,"MEAN_ELEMENT_THEORY":"SGP4","OBJECT_ID":"2020-055F","APOAPSIS":"548.076","MEAN_MOTION":"15.06405455","LAUNCH_DATE":"2020-08-07","PERIAPSIS":"546.317","SITE":"AFETR","SEMIMAJOR_AXIS":"6925.332","TLE_LINE2":"2 46032  53.0540  45.9628 0001270  85.0351 275.0783 15.06405455 69866","ARG_OF_PERICENTER":"85.0351","EPOCH":"2021-11-04T19:09:26.801568","RCS_SIZE":"LARGE","OBJECT_NAME":"STARLINK-1555","MEAN_MOTION_DDOT":"0.0000000000000","ELEMENT_SET_NO":"999","PERIOD":"95.592","INCLINATION":"53.0540","NORAD_CAT_ID":"46032","MEAN_ANOMALY":"275.0783","MEAN_MOTION_DOT":"0.00005087","COUNTRY_CODE":"US"}];
